[{"OBJECT_NAME":"STARLINK-36960","OBJECT_ID":"2026-053U","EPOCH":"2026-04-07T17:05:18.532320","MEAN_MOTION":15.80596054,"ECCENTRICITY":0.000106,"INCLINATION":97.2854,"RA_OF_ASC_NODE":333.4987,"ARG_OF_PERICENTER":17.3883,"MEAN_ANOMALY":342.7421,"EPHEMERIS_TYPE":0,"CLASSIFICATION_TYPE":"U","NORAD_CAT_ID":68225,"ELEMENT_SET_NO":999,"REV_AT_EPOCH":462,"BSTAR":-0.0010612,"MEAN_MOTION_DOT":-0.00196911,"MEAN_MOTION_DDOT":0},{"OBJECT_NAME":"STARLINK-37038","OBJECT_ID":"2026-053V","EPOCH":"2026-04-07T20:06:15.386112","MEAN_MOTION":15.79007319,"ECCENTRICITY":0.0002174,"INCLINATION":97.2856,"RA_OF_ASC_NODE":333.634,"ARG_OF_PERICENTER":191.0032,"MEAN_ANOMALY":169.1188,"EPHEMERIS_TYPE":0,"CLASSIFICATION_TYPE":"U","NORAD_CAT_ID":68226,"ELEMENT_SET_NO":999,"REV_AT_EPOCH":464,"BSTAR":0.001503,"MEAN_MOTION_DOT":0.00273672,"MEAN_MOTION_DDOT":0},{"OBJECT_NAME":"STARLINK-37083","OBJECT_ID":"2026-053W","EPOCH":"2026-04-07T20:06:19.104768","MEAN_MOTION":15.82301074,"ECCENTRICITY":0.0001234,"INCLINATION":97.2855,"RA_OF_ASC_NODE":333.6343,"ARG_OF_PERICENTER":144.6682,"MEAN_ANOMALY":215.4668,"EPHEMERIS_TYPE":0,"CLASSIFICATION_TYPE":"U","NORAD_CAT_ID":68227,"ELEMENT_SET_NO":999,"REV_AT_EPOCH":463,"BSTAR":0.012128,"MEAN_MOTION_DOT":0.02884503,"MEAN_MOTION_DDOT":0},{"OBJECT_NAME":"STARLINK-37050","OBJECT_ID":"2026-053X","EPOCH":"2026-04-07T20:04:43.453056","MEAN_MOTION":15.79486913,"ECCENTRICITY":0.0001744,"INCLINATION":97.2854,"RA_OF_ASC_NODE":333.6357,"ARG_OF_PERICENTER":5.381,"MEAN_ANOMALY":354.7476,"EPHEMERIS_TYPE":0,"CLASSIFICATION_TYPE":"U","NORAD_CAT_ID":68228,"ELEMENT_SET_NO":999,"REV_AT_EPOCH":464,"BSTAR":-0.0028858,"MEAN_MOTION_DOT":-0.00492199,"MEAN_MOTION_DDOT":0},{"OBJECT_NAME":"STARLINK-37081","OBJECT_ID":"2026-053Y","EPOCH":"2026-04-07T17:45:18.612000","MEAN_MOTION":15.75249616,"ECCENTRICITY":0.0001123,"INCLINATION":97.2842,"RA_OF_ASC_NODE":333.4612,"ARG_OF_PERICENTER":97.7981,"MEAN_ANOMALY":262.3412,"EPHEMERIS_TYPE":0,"CLASSIFICATION_TYPE":"U","NORAD_CAT_ID":68229,"ELEMENT_SET_NO":999,"REV_AT_EPOCH":464,"BSTAR":0.0016395,"MEAN_MOTION_DOT":0.00252428,"MEAN_MOTION_DDOT":0},{"OBJECT_NAME":"STARLINK-37100","OBJECT_ID":"2026-053Z","EPOCH":"2026-04-07T20:00:00.999360","MEAN_MOTION":15.78099552,"ECCENTRICITY":0.0001332,"INCLINATION":97.2852,"RA_OF_ASC_NODE":333.6345,"ARG_OF_PERICENTER":89.1799,"MEAN_ANOMALY":254.9525,"EPHEMERIS_TYPE":0,"CLASSIFICATION_TYPE":"U","NORAD_CAT_ID":68230,"ELEMENT_SET_NO":999,"REV_AT_EPOCH":470,"BSTAR":-0.01336,"MEAN_MOTION_DOT":-0.01965484,"MEAN_MOTION_DDOT":0},{"OBJECT_NAME":"STARLINK-37104","OBJECT_ID":"2026-053AA","EPOCH":"2026-04-07T20:00:00.999360","MEAN_MOTION":15.78080208,"ECCENTRICITY":0.0001312,"INCLINATION":97.2852,"RA_OF_ASC_NODE":333.6365,"ARG_OF_PERICENTER":96.7837,"MEAN_ANOMALY":251.5568,"EPHEMERIS_TYPE":0,"CLASSIFICATION_TYPE":"U","NORAD_CAT_ID":68231,"ELEMENT_SET_NO":999,"REV_AT_EPOCH":470,"BSTAR":-0.013472,"MEAN_MOTION_DOT":-0.01978132,"MEAN_MOTION_DDOT":0},{"OBJECT_NAME":"STARLINK-37027","OBJECT_ID":"2026-054A","EPOCH":"2026-04-07T16:18:36.589824","MEAN_MOTION":15.75261909,"ECCENTRICITY":0.0001341,"INCLINATION":53.1589,"RA_OF_ASC_NODE":167.7745,"ARG_OF_PERICENTER":72.6757,"MEAN_ANOMALY":287.441,"EPHEMERIS_TYPE":0,"CLASSIFICATION_TYPE":"U","NORAD_CAT_ID":68232,"ELEMENT_SET_NO":999,"REV_AT_EPOCH":335,"BSTAR":0.00064947,"MEAN_MOTION_DOT":0.00100203,"MEAN_MOTION_DDOT":0},{"OBJECT_NAME":"STARLINK-37132","OBJECT_ID":"2026-054B","EPOCH":"2026-04-07T15:30:06.889248","MEAN_MOTION":15.80939625,"ECCENTRICITY":7.84e-5,"INCLINATION":53.1575,"RA_OF_ASC_NODE":167.55,"ARG_OF_PERICENTER":76.0877,"MEAN_ANOMALY":284.0233,"EPHEMERIS_TYPE":0,"CLASSIFICATION_TYPE":"U","NORAD_CAT_ID":68233,"ELEMENT_SET_NO":999,"REV_AT_EPOCH":335,"BSTAR":0.00094894,"MEAN_MOTION_DOT":0.00191387,"MEAN_MOTION_DDOT":0},{"OBJECT_NAME":"STARLINK-37101","OBJECT_ID":"2026-054C","EPOCH":"2026-04-07T16:06:01.038240","MEAN_MOTION":15.75292712,"ECCENTRICITY":0.0001592,"INCLINATION":53.1578,"RA_OF_ASC_NODE":167.7156,"ARG_OF_PERICENTER":78.1065,"MEAN_ANOMALY":282.0133,"EPHEMERIS_TYPE":0,"CLASSIFICATION_TYPE":"U","NORAD_CAT_ID":68234,"ELEMENT_SET_NO":999,"REV_AT_EPOCH":335,"BSTAR":0.0011974,"MEAN_MOTION_DOT":0.00187475,"MEAN_MOTION_DDOT":0},{"OBJECT_NAME":"STARLINK-36963","OBJECT_ID":"2026-054D","EPOCH":"2026-04-07T16:12:32.592672","MEAN_MOTION":15.75280707,"ECCENTRICITY":7.43e-5,"INCLINATION":53.1588,"RA_OF_ASC_NODE":167.7462,"ARG_OF_PERICENTER":76.9193,"MEAN_ANOMALY":283.191,"EPHEMERIS_TYPE":0,"CLASSIFICATION_TYPE":"U","NORAD_CAT_ID":68235,"ELEMENT_SET_NO":999,"REV_AT_EPOCH":335,"BSTAR":0.00085905,"MEAN_MOTION_DOT":0.0013338,"MEAN_MOTION_DDOT":0},{"OBJECT_NAME":"STARLINK-37127","OBJECT_ID":"2026-054E","EPOCH":"2026-04-07T16:25:37.339680","MEAN_MOTION":15.75264753,"ECCENTRICITY":0.0001007,"INCLINATION":53.1584,"RA_OF_ASC_NODE":167.8063,"ARG_OF_PERICENTER":85.8321,"MEAN_ANOMALY":274.2814,"EPHEMERIS_TYPE":0,"CLASSIFICATION_TYPE":"U","NORAD_CAT_ID":68236,"ELEMENT_SET_NO":999,"REV_AT_EPOCH":335,"BSTAR":0.0006367,"MEAN_MOTION_DOT":0.00098208,"MEAN_MOTION_DDOT":0},{"OBJECT_NAME":"STARLINK-37095","OBJECT_ID":"2026-054F","EPOCH":"2026-04-07T16:19:04.681056","MEAN_MOTION":15.75227602,"ECCENTRICITY":9.61e-5,"INCLINATION":53.1592,"RA_OF_ASC_NODE":167.7764,"ARG_OF_PERICENTER":97.7562,"MEAN_ANOMALY":262.3567,"EPHEMERIS_TYPE":0,"CLASSIFICATION_TYPE":"U","NORAD_CAT_ID":68237,"ELEMENT_SET_NO":999,"REV_AT_EPOCH":335,"BSTAR":-7.1219e-5,"MEAN_MOTION_DOT":-0.00011535,"MEAN_MOTION_DDOT":0},{"OBJECT_NAME":"STARLINK-37097","OBJECT_ID":"2026-054G","EPOCH":"2026-04-07T20:00:00.999360","MEAN_MOTION":15.75564336,"ECCENTRICITY":8.67e-5,"INCLINATION":53.1586,"RA_OF_ASC_NODE":166.5881,"ARG_OF_PERICENTER":77.387,"MEAN_ANOMALY":281.0074,"EPHEMERIS_TYPE":0,"CLASSIFICATION_TYPE":"U","NORAD_CAT_ID":68238,"ELEMENT_SET_NO":999,"REV_AT_EPOCH":459,"BSTAR":-0.0036579,"MEAN_MOTION_DOT":-0.00534875,"MEAN_MOTION_DDOT":0},{"OBJECT_NAME":"STARLINK-37096","OBJECT_ID":"2026-054H","EPOCH":"2026-04-07T20:00:00.999360","MEAN_MOTION":15.75266104,"ECCENTRICITY":0.0001219,"INCLINATION":53.1584,"RA_OF_ASC_NODE":166.6934,"ARG_OF_PERICENTER":78.6989,"MEAN_ANOMALY":228.3327,"EPHEMERIS_TYPE":0,"CLASSIFICATION_TYPE":"U","NORAD_CAT_ID":68239,"ELEMENT_SET_NO":999,"REV_AT_EPOCH":459,"BSTAR":-0.00032137,"MEAN_MOTION_DOT":-0.00049671,"MEAN_MOTION_DDOT":0},{"OBJECT_NAME":"STARLINK-37092","OBJECT_ID":"2026-054J","EPOCH":"2026-04-07T14:21:06.525216","MEAN_MOTION":15.75253126,"ECCENTRICITY":0.0001217,"INCLINATION":53.1569,"RA_OF_ASC_NODE":167.9685,"ARG_OF_PERICENTER":67.0397,"MEAN_ANOMALY":293.0752,"EPHEMERIS_TYPE":0,"CLASSIFICATION_TYPE":"U","NORAD_CAT_ID":68240,"ELEMENT_SET_NO":999,"REV_AT_EPOCH":334,"BSTAR":0.00060478,"MEAN_MOTION_DOT":0.00093151,"MEAN_MOTION_DDOT":0},{"OBJECT_NAME":"STARLINK-37094","OBJECT_ID":"2026-054K","EPOCH":"2026-04-07T15:21:28.528128","MEAN_MOTION":15.80923598,"ECCENTRICITY":0.0001655,"INCLINATION":53.1577,"RA_OF_ASC_NODE":167.5092,"ARG_OF_PERICENTER":52.7294,"MEAN_ANOMALY":307.388,"EPHEMERIS_TYPE":0,"CLASSIFICATION_TYPE":"U","NORAD_CAT_ID":68241,"ELEMENT_SET_NO":999,"REV_AT_EPOCH":335,"BSTAR":0.00087147,"MEAN_MOTION_DOT":0.00175246,"MEAN_MOTION_DDOT":0}]
