STARLINK-36960          
1 68225U 26053U   26097.71202005 -.00196911  00000+0 -10612-2 0  9990
2 68225  97.2854 333.4987 0001060  17.3883 342.7421 15.80596054  4622
STARLINK-37038          
1 68226U 26053V   26097.83767808  .00273672  00000+0  15030-2 0  9998
2 68226  97.2856 333.6340 0002174 191.0032 169.1188 15.79007319  4645
STARLINK-37083          
1 68227U 26053W   26097.83772112  .02884503  00000+0  12128-1 0  9990
2 68227  97.2855 333.6343 0001234 144.6682 215.4668 15.82301074  4635
STARLINK-37050          
1 68228U 26053X   26097.83661404 -.00492199  00000+0 -28858-2 0  9996
2 68228  97.2854 333.6357 0001744   5.3810 354.7476 15.79486913  4649
STARLINK-37081          
1 68229U 26053Y   26097.73979875  .00252428  00000+0  16395-2 0  9990
2 68229  97.2842 333.4612 0001123  97.7981 262.3412 15.75249616  4641
STARLINK-37100          
1 68230U 26053Z   26097.83334490 -.01965484  00000+0 -13360-1 0  9995
2 68230  97.2852 333.6345 0001332  89.1799 254.9525 15.78099552  4707
STARLINK-37104          
1 68231U 26053AA  26097.83334490 -.01978132  00000+0 -13472-1 0  9994
2 68231  97.2852 333.6365 0001312  96.7837 251.5568 15.78080208  4703
STARLINK-37027          
1 68232U 26054A   26097.67959016  .00100203  00000+0  64947-3 0  9993
2 68232  53.1589 167.7745 0001341  72.6757 287.4410 15.75261909  3356
STARLINK-37132          
1 68233U 26054B   26097.64591307  .00191387  00000+0  94894-3 0  9993
2 68233  53.1575 167.5500 0000784  76.0877 284.0233 15.80939625  3359
STARLINK-37101          
1 68234U 26054C   26097.67084535  .00187475  00000+0  11974-2 0  9997
2 68234  53.1578 167.7156 0001592  78.1065 282.0133 15.75292712  3352
STARLINK-36963          
1 68235U 26054D   26097.67537723  .00133380  00000+0  85905-3 0  9992
2 68235  53.1588 167.7462 0000743  76.9193 283.1910 15.75280707  3355
STARLINK-37127          
1 68236U 26054E   26097.68445995  .00098208  00000+0  63670-3 0  9997
2 68236  53.1584 167.8063 0001007  85.8321 274.2814 15.75264753  3353
STARLINK-37095          
1 68237U 26054F   26097.67991529 -.00011535  00000+0 -71219-4 0  9995
2 68237  53.1592 167.7764 0000961  97.7562 262.3567 15.75227602  3352
STARLINK-37097          
1 68238U 26054G   26097.83334490 -.00534875  00000+0 -36579-2 0  9997
2 68238  53.1586 166.5881 0000867  77.3870 281.0074 15.75564336  4590
STARLINK-37096          
1 68239U 26054H   26097.83334490 -.00049671  00000+0 -32137-3 0  9990
2 68239  53.1584 166.6934 0001219  78.6989 228.3327 15.75266104  4593
STARLINK-37092          
1 68240U 26054J   26097.59799219  .00093151  00000+0  60478-3 0  9998
2 68240  53.1569 167.9685 0001217  67.0397 293.0752 15.75253126  3341
STARLINK-37094          
1 68241U 26054K   26097.63991352  .00175246  00000+0  87147-3 0  9994
2 68241  53.1577 167.5092 0001655  52.7294 307.3880 15.80923598  3357
